{
  "type": "FeatureCollection",
  "name": "synthetic_habitations",
  "crs": {
    "type": "name",
    "properties": {
      "name": "EPSG:4326"
    }
  },
  "features": [
    {
      "type": "Feature",
      "properties": {
        "habitation_id": "H001",
        "name": "Krishnapuram Village",
        "population": 1240,
        "vulnerability": 0.71,
        "historical_events": 3,
        "hospital_distance_km": 8.2,
        "road_accessibility": 0.35,
        "district": "Thanjavur",
        "data_source": "SYNTHETIC_DEMO"
      },
      "geometry": {
        "type": "Polygon",
        "coordinates": [[[80.20,13.40],[80.21,13.40],[80.21,13.41],[80.20,13.41],[80.20,13.40]]]
      }
    },
    {
      "type": "Feature",
      "properties": {
        "habitation_id": "H002",
        "name": "Lakshmipuram Village",
        "population": 980,
        "vulnerability": 0.62,
        "historical_events": 2,
        "hospital_distance_km": 5.5,
        "road_accessibility": 0.55,
        "district": "Thanjavur",
        "data_source": "SYNTHETIC_DEMO"
      },
      "geometry": {
        "type": "Polygon",
        "coordinates": [[[80.21,13.40],[80.22,13.40],[80.22,13.41],[80.21,13.41],[80.21,13.40]]]
      }
    },
    {
      "type": "Feature",
      "properties": {
        "habitation_id": "H003",
        "name": "Ramanathapuram Village",
        "population": 760,
        "vulnerability": 0.48,
        "historical_events": 1,
        "hospital_distance_km": 6.8,
        "road_accessibility": 0.68,
        "district": "Thanjavur",
        "data_source": "SYNTHETIC_DEMO"
      },
      "geometry": {
        "type": "Polygon",
        "coordinates": [[[80.20,13.41],[80.21,13.41],[80.21,13.42],[80.20,13.42],[80.20,13.41]]]
      }
    },
    {
      "type": "Feature",
      "properties": {
        "habitation_id": "H004",
        "name": "Meenakshipuram Village",
        "population": 650,
        "vulnerability": 0.39,
        "historical_events": 0,
        "hospital_distance_km": 4.2,
        "road_accessibility": 0.82,
        "district": "Thanjavur",
        "data_source": "SYNTHETIC_DEMO"
      },
      "geometry": {
        "type": "Polygon",
        "coordinates": [[[80.22,13.41],[80.23,13.41],[80.23,13.42],[80.22,13.42],[80.22,13.41]]]
      }
    },
    {
      "type": "Feature",
      "properties": {
        "habitation_id": "H005",
        "name": "Vijayapuram Village",
        "population": 520,
        "vulnerability": 0.31,
        "historical_events": 1,
        "hospital_distance_km": 3.7,
        "road_accessibility": 0.90,
        "district": "Thanjavur",
        "data_source": "SYNTHETIC_DEMO"
      },
      "geometry": {
        "type": "Polygon",
        "coordinates": [[[80.23,13.41],[80.24,13.41],[80.24,13.42],[80.23,13.42],[80.23,13.41]]]
      }
    }
  ]
}
