{
  "type": "FeatureCollection",
  "name": "roads",
  "crs": {
    "type": "name",
    "properties": {
      "name": "EPSG:4326"
    }
  },
  "features": [
    {
      "type": "Feature",
      "properties": {
        "road_id": "R001",
        "road_type": "primary",
        "accessibility": 0.90,
        "data_source": "SYNTHETIC_DEMO"
      },
      "geometry": {
        "type": "LineString",
        "coordinates": [[80.195,13.405],[80.225,13.405]]
      }
    },
    {
      "type": "Feature",
      "properties": {
        "road_id": "R002",
        "road_type": "secondary",
        "accessibility": 0.70,
        "data_source": "SYNTHETIC_DEMO"
      },
      "geometry": {
        "type": "LineString",
        "coordinates": [[80.195,13.390],[80.225,13.390]]
      }
    },
    {
      "type": "Feature",
      "properties": {
        "road_id": "R003",
        "road_type": "secondary",
        "accessibility": 0.55,
        "data_source": "SYNTHETIC_DEMO"
      },
      "geometry": {
        "type": "LineString",
        "coordinates": [[80.195,13.440],[80.225,13.440]]
      }
    },
    {
      "type": "Feature",
      "properties": {
        "road_id": "R004",
        "road_type": "local",
        "accessibility": 0.35,
        "data_source": "SYNTHETIC_DEMO"
      },
      "geometry": {
        "type": "LineString",
        "coordinates": [[80.250,13.390],[80.250,13.440]]
      }
    }
  ]
}
